{"type": "FeatureCollection", "features": [ {"type": "Feature", "properties": {"norad_id": 66609, "name": "STARLINK-36034", "group": "last-30-days", "lat": 22.980323204142252, "lon": -126.69581524154535, "alt_km": 408.4592931953339, "timestamp": "2025-12-10T09:57:43.489866+00:00", "meta": {"OBJECT_NAME": "STARLINK-36034", "OBJECT_ID": "2025-270X", "EPOCH": "2025-12-10T04:00:01.998720", "MEAN_MOTION": 15.5290898, "ECCENTRICITY": 0.0001638, "INCLINATION": 42.9997, "RA_OF_ASC_NODE": 207.6907, "ARG_OF_PERICENTER": 269.7784, "MEAN_ANOMALY": 175.359, "EPHEMERIS_TYPE": 0, "CLASSIFICATION_TYPE": "U", "NORAD_CAT_ID": 66609, "ELEMENT_SET_NO": 999, "REV_AT_EPOCH": 382, "BSTAR": -0.03382, "MEAN_MOTION_DOT": -0.01936012, "MEAN_MOTION_DDOT": 0}, "tle": {"line1": "1 66609U 25270X   25344.16668980 -.01936012  00000+0 -33820-1 0  9995", "line2": "2 66609  42.9997 207.6907 0001638 269.7784 175.3590 15.52908980  3821"}}, "geometry": {"type": "Point", "coordinates": [-126.69581524154535, 22.980323204142252]}}, {"type": "Feature", "properties": {"norad_id": 66610, "name": "STARLINK-35680", "group": "last-30-days", "lat": 24.13452753971582, "lon": -125.03271215871861, "alt_km": 408.29386463521496, "timestamp": "2025-12-10T09:57:43.489876+00:00", "meta": {"OBJECT_NAME": "STARLINK-35680", "OBJECT_ID": "2025-270Y", "EPOCH": "2025-12-10T04:00:01.998720", "MEAN_MOTION": 15.52901979, "ECCENTRICITY": 0.0001656, "INCLINATION": 42.9997, "RA_OF_ASC_NODE": 207.6856, "ARG_OF_PERICENTER": 271.1429, "MEAN_ANOMALY": 175.9126, "EPHEMERIS_TYPE": 0, "CLASSIFICATION_TYPE": "U", "NORAD_CAT_ID": 66610, "ELEMENT_SET_NO": 999, "REV_AT_EPOCH": 409, "BSTAR": -0.033672, "MEAN_MOTION_DOT": -0.01893896, "MEAN_MOTION_DDOT": 0}, "tle": {"line1": "1 66610U 25270Y   25344.16668980 -.01893896  00000+0 -33672-1 0  9994", "line2": "2 66610  42.9997 207.6856 0001656 271.1429 175.9126 15.52901979  4091"}}, "geometry": {"type": "Point", "coordinates": [-125.03271215871861, 24.13452753971582]}}, {"type": "Feature", "properties": {"norad_id": 66611, "name": "STARLINK-35583", "group": "last-30-days", "lat": 25.27191142893542, "lon": -123.33667838194134, "alt_km": 408.1552039492972, "timestamp": "2025-12-10T09:57:43.489888+00:00", "meta": {"OBJECT_NAME": "STARLINK-35583", "OBJECT_ID": "2025-270Z", "EPOCH": "2025-12-10T04:00:01.998720", "MEAN_MOTION": 15.52905635, "ECCENTRICITY": 0.0001659, "INCLINATION": 42.9996, "RA_OF_ASC_NODE": 207.6807, "ARG_OF_PERICENTER": 271.4058, "MEAN_ANOMALY": 177.5673, "EPHEMERIS_TYPE": 0, "CLASSIFICATION_TYPE": "U", "NORAD_CAT_ID": 66611, "ELEMENT_SET_NO": 999, "REV_AT_EPOCH": 409, "BSTAR": -0.033937, "MEAN_MOTION_DOT": -0.01941832, "MEAN_MOTION_DDOT": 0}, "tle": {"line1": "1 66611U 25270Z   25344.16668980 -.01941832  00000+0 -33937-1 0  9993", "line2": "2 66611  42.9996 207.6807 0001659 271.4058 177.5673 15.52905635  4099"}}, "geometry": {"type": "Point", "coordinates": [-123.33667838194134, 25.27191142893542]}}, {"type": "Feature", "properties": {"norad_id": 66612, "name": "STARLINK-36039", "group": "last-30-days", "lat": 26.39118548153977, "lon": -121.6068230837151, "alt_km": 408.0203412973815, "timestamp": "2025-12-10T09:57:43.489898+00:00", "meta": {"OBJECT_NAME": "STARLINK-36039", "OBJECT_ID": "2025-270AA", "EPOCH": "2025-12-10T04:00:01.998720", "MEAN_MOTION": 15.52902369, "ECCENTRICITY": 0.0001696, "INCLINATION": 42.9997, "RA_OF_ASC_NODE": 207.6752, "ARG_OF_PERICENTER": 270.5263, "MEAN_ANOMALY": 180.3655, "EPHEMERIS_TYPE": 0, "CLASSIFICATION_TYPE": "U", "NORAD_CAT_ID": 66612, "ELEMENT_SET_NO": 999, "REV_AT_EPOCH": 398, "BSTAR": -0.033637, "MEAN_MOTION_DOT": -0.01892204, "MEAN_MOTION_DDOT": 0}, "tle": {"line1": "1 66612U 25270AA  25344.16668980 -.01892204  00000+0 -33637-1 0  9999", "line2": "2 66612  42.9997 207.6752 0001696 270.5263 180.3655 15.52902369  3989"}}, "geometry": {"type": "Point", "coordinates": [-121.6068230837151, 26.39118548153977]}}, {"type": "Feature", "properties": {"norad_id": 66613, "name": "STARLINK-36037", "group": "last-30-days", "lat": 27.486739926126475, "lon": -119.84621933390818, "alt_km": 407.75289565452385, "timestamp": "2025-12-10T09:57:43.489908+00:00", "meta": {"OBJECT_NAME": "STARLINK-36037", "OBJECT_ID": "2025-270AB", "EPOCH": "2025-12-10T04:00:01.998720", "MEAN_MOTION": 15.52901465, "ECCENTRICITY": 0.0001563, "INCLINATION": 42.9997, "RA_OF_ASC_NODE": 207.6706, "ARG_OF_PERICENTER": 273.9254, "MEAN_ANOMALY": 178.8825, "EPHEMERIS_TYPE": 0, "CLASSIFICATION_TYPE": "U", "NORAD_CAT_ID": 66613, "ELEMENT_SET_NO": 999, "REV_AT_EPOCH": 398, "BSTAR": -0.033564, "MEAN_MOTION_DOT": -0.01888455, "MEAN_MOTION_DDOT": 0}, "tle": {"line1": "1 66613U 25270AB  25344.16668980 -.01888455  00000+0 -33564-1 0  9992", "line2": "2 66613  42.9997 207.6706 0001563 273.9254 178.8825 15.52901465  3986"}}, "geometry": {"type": "Point", "coordinates": [-119.84621933390818, 27.486739926126475]}}, {"type": "Feature", "properties": {"norad_id": 66614, "name": "STARLINK-36040", "group": "last-30-days", "lat": 29.60861992963512, "lon": -116.21824492027397, "alt_km": 407.49101835808324, "timestamp": "2025-12-10T09:57:43.489921+00:00", "meta": {"OBJECT_NAME": "STARLINK-36040", "OBJECT_ID": "2025-270AC", "EPOCH": "2025-12-10T04:00:01.998720", "MEAN_MOTION": 15.52905881, "ECCENTRICITY": 0.0001529, "INCLINATION": 42.9998, "RA_OF_ASC_NODE": 207.6607, "ARG_OF_PERICENTER": 272.1097, "MEAN_ANOMALY": 184.5301, "EPHEMERIS_TYPE": 0, "CLASSIFICATION_TYPE": "U", "NORAD_CAT_ID": 66614, "ELEMENT_SET_NO": 999, "REV_AT_EPOCH": 382, "BSTAR": -0.033763, "MEAN_MOTION_DOT": -0.01932821, "MEAN_MOTION_DDOT": 0}, "tle": {"line1": "1 66614U 25270AC  25344.16668980 -.01932821  00000+0 -33763-1 0  9991", "line2": "2 66614  42.9998 207.6607 0001529 272.1097 184.5301 15.52905881  3828"}}, "geometry": {"type": "Point", "coordinates": [-116.21824492027397, 29.60861992963512]}}, {"type": "Feature", "properties": {"norad_id": 66615, "name": "STARLINK-35988", "group": "last-30-days", "lat": 28.557762651797947, "lon": -118.05374985692265, "alt_km": 407.612643662329, "timestamp": "2025-12-10T09:57:43.489931+00:00", "meta": {"OBJECT_NAME": "STARLINK-35988", "OBJECT_ID": "2025-270AD", "EPOCH": "2025-12-10T04:00:01.998720", "MEAN_MOTION": 15.52907932, "ECCENTRICITY": 0.0001443, "INCLINATION": 42.9997, "RA_OF_ASC_NODE": 207.6659, "ARG_OF_PERICENTER": 269.1611, "MEAN_ANOMALY": 185.5556, "EPHEMERIS_TYPE": 0, "CLASSIFICATION_TYPE": "U", "NORAD_CAT_ID": 66615, "ELEMENT_SET_NO": 999, "REV_AT_EPOCH": 382, "BSTAR": -0.033546, "MEAN_MOTION_DOT": -0.01887867, "MEAN_MOTION_DDOT": 0}, "tle": {"line1": "1 66615U 25270AD  25344.16668980 -.01887867  00000+0 -33546-1 0  9990", "line2": "2 66615  42.9997 207.6659 0001443 269.1611 185.5556 15.52907932  3820"}}, "geometry": {"type": "Point", "coordinates": [-118.05374985692265, 28.557762651797947]}}, {"type": "Feature", "properties": {"norad_id": 66616, "name": "STARLINK-35391", "group": "last-30-days", "lat": 30.631817624298602, "lon": -114.34669264539532, "alt_km": 407.3502059748007, "timestamp": "2025-12-10T09:57:43.489943+00:00", "meta": {"OBJECT_NAME": "STARLINK-35391", "OBJECT_ID": "2025-270AE", "EPOCH": "2025-12-10T04:00:01.998720", "MEAN_MOTION": 15.52904277, "ECCENTRICITY": 0.0001523, "INCLINATION": 42.9997, "RA_OF_ASC_NODE": 207.6562, "ARG_OF_PERICENTER": 271.9318, "MEAN_ANOMALY": 186.6251, "EPHEMERIS_TYPE": 0, "CLASSIFICATION_TYPE": "U", "NORAD_CAT_ID": 66616, "ELEMENT_SET_NO": 999, "REV_AT_EPOCH": 409, "BSTAR": -0.033685, "MEAN_MOTION_DOT": -0.01928723, "MEAN_MOTION_DDOT": 0}, "tle": {"line1": "1 66616U 25270AE  25344.16668980 -.01928723  00000+0 -33685-1 0  9992", "line2": "2 66616  42.9997 207.6562 0001523 271.9318 186.6251 15.52904277  4091"}}, "geometry": {"type": "Point", "coordinates": [-114.34669264539532, 30.631817624298602]}}, {"type": "Feature", "properties": {"norad_id": 66617, "name": "STARLINK-35940", "group": "last-30-days", "lat": 22.161853569912868, "lon": -143.77712078474477, "alt_km": 384.8260947920717, "timestamp": "2025-12-10T09:57:43.489954+00:00", "meta": {"OBJECT_NAME": "STARLINK-35940", "OBJECT_ID": "2025-271A", "EPOCH": "2025-12-10T04:00:01.998720", "MEAN_MOTION": 15.61182518, "ECCENTRICITY": 9.22e-05, "INCLINATION": 53.1594, "RA_OF_ASC_NODE": 199.6501, "ARG_OF_PERICENTER": 86.7783, "MEAN_ANOMALY": 345.0955, "EPHEMERIS_TYPE": 0, "CLASSIFICATION_TYPE": "U", "NORAD_CAT_ID": 66617, "ELEMENT_SET_NO": 999, "REV_AT_EPOCH": 383, "BSTAR": -0.026807, "MEAN_MOTION_DOT": -0.02024797, "MEAN_MOTION_DDOT": 0}, "tle": {"line1": "1 66617U 25271A   25344.16668980 -.02024797  00000+0 -26807-1 0  9991", "line2": "2 66617  53.1594 199.6501 0000922  86.7783 345.0955 15.61182518  3831"}}, "geometry": {"type": "Point", "coordinates": [-143.77712078474477, 22.161853569912868]}}, {"type": "Feature", "properties": {"norad_id": 66618, "name": "STARLINK-35970", "group": "last-30-days", "lat": 52.31404832591977, "lon": -85.6135574976079, "alt_km": 379.7498636774171, "timestamp": "2025-12-10T09:57:43.489964+00:00", "meta": {"OBJECT_NAME": "STARLINK-35970", "OBJECT_ID": "2025-271B", "EPOCH": "2025-12-10T04:00:01.998720", "MEAN_MOTION": 15.6116721, "ECCENTRICITY": 0.0001125, "INCLINATION": 53.1596, "RA_OF_ASC_NODE": 199.5374, "ARG_OF_PERICENTER": 80.4241, "MEAN_ANOMALY": 44.7763, "EPHEMERIS_TYPE": 0, "CLASSIFICATION_TYPE": "U", "NORAD_CAT_ID": 66618, "ELEMENT_SET_NO": 999, "REV_AT_EPOCH": 383, "BSTAR": -0.026502, "MEAN_MOTION_DOT": -0.02003724, "MEAN_MOTION_DDOT": 0}, "tle": {"line1": "1 66618U 25271B   25344.16668980 -.02003724  00000+0 -26502-1 0  9991", "line2": "2 66618  53.1596 199.5374 0001125  80.4241  44.7763 15.61167210  3839"}}, "geometry": {"type": "Point", "coordinates": [-85.6135574976079, 52.31404832591977]}}]}